[{"OBJECT_NAME":"COSMOS 2251 DEB","OBJECT_ID":"1993-036AAV","EPOCH":"2026-03-14T14:05:23.583264","MEAN_MOTION":14.5690287,"ECCENTRICITY":0.00100061,"INCLINATION":74.0209,"RA_OF_ASC_NODE":355.2531,"ARG_OF_PERICENTER":72.1737,"MEAN_ANOMALY":345.9102,"EPHEMERIS_TYPE":0,"CLASSIFICATION_TYPE":"U","NORAD_CAT_ID":34792,"ELEMENT_SET_NO":999,"REV_AT_EPOCH":88987,"BSTAR":0.0011805449,"MEAN_MOTION_DOT":5.275e-5,"MEAN_MOTION_DDOT":0},{"OBJECT_NAME":"COSMOS 2251 DEB","OBJECT_ID":"1993-036AAW","EPOCH":"2026-03-14T10:57:31.382208","MEAN_MOTION":14.38808895,"ECCENTRICITY":0.00524437,"INCLINATION":74.0002,"RA_OF_ASC_NODE":80.8971,"ARG_OF_PERICENTER":215.7285,"MEAN_ANOMALY":295.3132,"EPHEMERIS_TYPE":0,"CLASSIFICATION_TYPE":"U","NORAD_CAT_ID":34793,"ELEMENT_SET_NO":999,"REV_AT_EPOCH":88649,"BSTAR":0.00023242376,"MEAN_MOTION_DOT":6.99e-6,"MEAN_MOTION_DDOT":0},{"OBJECT_NAME":"COSMOS 2251 DEB","OBJECT_ID":"1993-036AAZ","EPOCH":"2026-03-14T14:41:48.152832","MEAN_MOTION":14.49263034,"ECCENTRICITY":0.00974209,"INCLINATION":74.0306,"RA_OF_ASC_NODE":44.0079,"ARG_OF_PERICENTER":125.0737,"MEAN_ANOMALY":357.3883,"EPHEMERIS_TYPE":0,"CLASSIFICATION_TYPE":"U","NORAD_CAT_ID":34796,"ELEMENT_SET_NO":999,"REV_AT_EPOCH":89358,"BSTAR":0.00067130672,"MEAN_MOTION_DOT":2.692e-5,"MEAN_MOTION_DDOT":0},{"OBJECT_NAME":"COSMOS 2251 DEB","OBJECT_ID":"1993-036ABA","EPOCH":"2026-03-14T13:43:38.678016","MEAN_MOTION":14.44010685,"ECCENTRICITY":0.00700686,"INCLINATION":73.9764,"RA_OF_ASC_NODE":288.7244,"ARG_OF_PERICENTER":20.4901,"MEAN_ANOMALY":339.904,"EPHEMERIS_TYPE":0,"CLASSIFICATION_TYPE":"U","NORAD_CAT_ID":34797,"ELEMENT_SET_NO":999,"REV_AT_EPOCH":88740,"BSTAR":0.0018063313,"MEAN_MOTION_DOT":6.341e-5,"MEAN_MOTION_DDOT":0},{"OBJECT_NAME":"COSMOS 2251 DEB","OBJECT_ID":"1993-036ABC","EPOCH":"2026-03-09T20:10:14.927520","MEAN_MOTION":13.50938738,"ECCENTRICITY":0.04362264,"INCLINATION":73.934,"RA_OF_ASC_NODE":353.0437,"ARG_OF_PERICENTER":10.5078,"MEAN_ANOMALY":350.4785,"EPHEMERIS_TYPE":0,"CLASSIFICATION_TYPE":"U","NORAD_CAT_ID":34813,"ELEMENT_SET_NO":999,"REV_AT_EPOCH":82831,"BSTAR":0.0053059354,"MEAN_MOTION_DOT":6.198e-5,"MEAN_MOTION_DDOT":0},{"OBJECT_NAME":"COSMOS 2251 DEB","OBJECT_ID":"1993-036ABD","EPOCH":"2026-03-14T11:51:24.943680","MEAN_MOTION":14.37348915,"ECCENTRICITY":0.005387,"INCLINATION":73.8957,"RA_OF_ASC_NODE":155.2267,"ARG_OF_PERICENTER":21.1944,"MEAN_ANOMALY":356.0955,"EPHEMERIS_TYPE":0,"CLASSIFICATION_TYPE":"U","NORAD_CAT_ID":34814,"ELEMENT_SET_NO":999,"REV_AT_EPOCH":88651,"BSTAR":0.0006411448,"MEAN_MOTION_DOT":1.92e-5,"MEAN_MOTION_DDOT":0},{"OBJECT_NAME":"COSMOS 2251 DEB","OBJECT_ID":"1993-036ABE","EPOCH":"2026-03-13T00:17:40.848576","MEAN_MOTION":14.79767507,"ECCENTRICITY":0.00534651,"INCLINATION":74.0435,"RA_OF_ASC_NODE":64.3401,"ARG_OF_PERICENTER":112.6418,"MEAN_ANOMALY":248.0425,"EPHEMERIS_TYPE":0,"CLASSIFICATION_TYPE":"U","NORAD_CAT_ID":34815,"ELEMENT_SET_NO":999,"REV_AT_EPOCH":89962,"BSTAR":0.00091134869,"MEAN_MOTION_DOT":6.998e-5,"MEAN_MOTION_DDOT":0},{"OBJECT_NAME":"COSMOS 2251 DEB","OBJECT_ID":"1993-036ABF","EPOCH":"2026-03-14T12:20:24.619776","MEAN_MOTION":13.5855488,"ECCENTRICITY":0.03711303,"INCLINATION":73.8907,"RA_OF_ASC_NODE":353.3629,"ARG_OF_PERICENTER":41.2256,"MEAN_ANOMALY":136.6384,"EPHEMERIS_TYPE":0,"CLASSIFICATION_TYPE":"U","NORAD_CAT_ID":34816,"ELEMENT_SET_NO":999,"REV_AT_EPOCH":84029,"BSTAR":0.0012797025,"MEAN_MOTION_DOT":1.444e-5,"MEAN_MOTION_DDOT":0},{"OBJECT_NAME":"COSMOS 2251 DEB","OBJECT_ID":"1993-036ABH","EPOCH":"2026-03-14T13:57:32.895072","MEAN_MOTION":14.37106515,"ECCENTRICITY":0.00246981,"INCLINATION":74.0348,"RA_OF_ASC_NODE":128.0556,"ARG_OF_PERICENTER":188.666,"MEAN_ANOMALY":321.7374,"EPHEMERIS_TYPE":0,"CLASSIFICATION_TYPE":"U","NORAD_CAT_ID":34818,"ELEMENT_SET_NO":999,"REV_AT_EPOCH":88689,"BSTAR":0.0002104686,"MEAN_MOTION_DOT":6.01e-6,"MEAN_MOTION_DDOT":0},{"OBJECT_NAME":"COSMOS 2251 DEB","OBJECT_ID":"1993-036ABJ","EPOCH":"2026-03-13T23:51:40.302144","MEAN_MOTION":14.65539544,"ECCENTRICITY":0.00133573,"INCLINATION":74.0197,"RA_OF_ASC_NODE":327.0053,"ARG_OF_PERICENTER":38.5295,"MEAN_ANOMALY":336.465,"EPHEMERIS_TYPE":0,"CLASSIFICATION_TYPE":"U","NORAD_CAT_ID":34819,"ELEMENT_SET_NO":999,"REV_AT_EPOCH":89565,"BSTAR":0.0012246645,"MEAN_MOTION_DOT":6.626e-5,"MEAN_MOTION_DDOT":0},{"OBJECT_NAME":"COSMOS 2251 DEB","OBJECT_ID":"1993-036ABN","EPOCH":"2026-03-12T22:24:54.568224","MEAN_MOTION":14.55417464,"ECCENTRICITY":0.01533693,"INCLINATION":74.0401,"RA_OF_ASC_NODE":291.4722,"ARG_OF_PERICENTER":352.6062,"MEAN_ANOMALY":7.2837,"EPHEMERIS_TYPE":0,"CLASSIFICATION_TYPE":"U","NORAD_CAT_ID":34823,"ELEMENT_SET_NO":999,"REV_AT_EPOCH":89693,"BSTAR":0.00036459734,"MEAN_MOTION_DOT":1.823e-5,"MEAN_MOTION_DDOT":0},{"OBJECT_NAME":"COSMOS 2251 DEB","OBJECT_ID":"1993-036ABP","EPOCH":"2026-03-14T09:55:19.782624","MEAN_MOTION":14.46073105,"ECCENTRICITY":0.00208479,"INCLINATION":74.0267,"RA_OF_ASC_NODE":337.2051,"ARG_OF_PERICENTER":119.636,"MEAN_ANOMALY":240.6878,"EPHEMERIS_TYPE":0,"CLASSIFICATION_TYPE":"U","NORAD_CAT_ID":34845,"ELEMENT_SET_NO":999,"REV_AT_EPOCH":88791,"BSTAR":0.00025928205,"MEAN_MOTION_DOT":9.01e-6,"MEAN_MOTION_DDOT":0},{"OBJECT_NAME":"COSMOS 2251 DEB","OBJECT_ID":"1993-036ABQ","EPOCH":"2026-03-14T07:49:39.241632","MEAN_MOTION":14.47828679,"ECCENTRICITY":0.00236726,"INCLINATION":74.0283,"RA_OF_ASC_NODE":90.4151,"ARG_OF_PERICENTER":143.6215,"MEAN_ANOMALY":216.6559,"EPHEMERIS_TYPE":0,"CLASSIFICATION_TYPE":"U","NORAD_CAT_ID":34846,"ELEMENT_SET_NO":999,"REV_AT_EPOCH":88729,"BSTAR":0.0006200836,"MEAN_MOTION_DOT":2.276e-5,"MEAN_MOTION_DDOT":0},{"OBJECT_NAME":"COSMOS 2251 DEB","OBJECT_ID":"1993-036ABW","EPOCH":"2026-03-14T10:11:17.713248","MEAN_MOTION":14.37083318,"ECCENTRICITY":0.00164892,"INCLINATION":74.0308,"RA_OF_ASC_NODE":94.3449,"ARG_OF_PERICENTER":184.6194,"MEAN_ANOMALY":175.481,"EPHEMERIS_TYPE":0,"CLASSIFICATION_TYPE":"U","NORAD_CAT_ID":34852,"ELEMENT_SET_NO":999,"REV_AT_EPOCH":88851,"BSTAR":0.00011336731,"MEAN_MOTION_DOT":3.11e-6,"MEAN_MOTION_DDOT":0},{"OBJECT_NAME":"COSMOS 2251 DEB","OBJECT_ID":"1993-036ABY","EPOCH":"2026-03-14T11:01:27.384672","MEAN_MOTION":14.77670287,"ECCENTRICITY":0.0062764,"INCLINATION":74.0311,"RA_OF_ASC_NODE":338.6382,"ARG_OF_PERICENTER":67.0498,"MEAN_ANOMALY":293.7283,"EPHEMERIS_TYPE":0,"CLASSIFICATION_TYPE":"U","NORAD_CAT_ID":34854,"ELEMENT_SET_NO":999,"REV_AT_EPOCH":73236,"BSTAR":0.00068900906,"MEAN_MOTION_DOT":5.067e-5,"MEAN_MOTION_DDOT":0},{"OBJECT_NAME":"COSMOS 2251 DEB","OBJECT_ID":"1993-036ACA","EPOCH":"2026-03-13T22:40:54.730560","MEAN_MOTION":15.11645275,"ECCENTRICITY":0.0029645,"INCLINATION":73.9924,"RA_OF_ASC_NODE":256.4694,"ARG_OF_PERICENTER":6.9183,"MEAN_ANOMALY":142.966,"EPHEMERIS_TYPE":0,"CLASSIFICATION_TYPE":"U","NORAD_CAT_ID":34856,"ELEMENT_SET_NO":999,"REV_AT_EPOCH":90487,"BSTAR":0.0018910127,"MEAN_MOTION_DOT":0.00032604,"MEAN_MOTION_DDOT":0}]
