COSMOS 2251 DEB         
1 34792U 93036AAV 26073.58707851  .00005275  00000+0  11805-2 0  9990
2 34792  74.0209 355.2531 0010006  72.1737 345.9102 14.56902870889873
COSMOS 2251 DEB         
1 34793U 93036AAW 26073.45661322  .00000699  00000+0  23242-3 0  9993
2 34793  74.0002  80.8971 0052443 215.7285 295.3132 14.38808895886496
COSMOS 2251 DEB         
1 34796U 93036AAZ 26073.61236288  .00002692  00000+0  67131-3 0  9993
2 34796  74.0306  44.0079 0097420 125.0737 357.3883 14.49263034893588
COSMOS 2251 DEB         
1 34797U 93036ABA 26073.57197544  .00006341  00000+0  18063-2 0  9994
2 34797  73.9764 288.7244 0070068  20.4901 339.9040 14.44010685887408
COSMOS 2251 DEB         
1 34813U 93036ABC 26068.84045055  .00006198  00000+0  53059-2 0  9990
2 34813  73.9340 353.0437 0436226  10.5078 350.4785 13.50938738828317
COSMOS 2251 DEB         
1 34814U 93036ABD 26073.49403870  .00001920  00000+0  64114-3 0  9994
2 34814  73.8957 155.2267 0053870  21.1944 356.0955 14.37348915886519
COSMOS 2251 DEB         
1 34815U 93036ABE 26072.01227834  .00006998  00000+0  91135-3 0  9999
2 34815  74.0435  64.3401 0053465 112.6418 248.0425 14.79767507899622
COSMOS 2251 DEB         
1 34816U 93036ABF 26073.51417384  .00001444  00000+0  12797-2 0  9994
2 34816  73.8907 353.3629 0371130  41.2256 136.6384 13.58554880840295
COSMOS 2251 DEB         
1 34818U 93036ABH 26073.58163073  .00000601  00000+0  21047-3 0  9999
2 34818  74.0348 128.0556 0024698 188.6660 321.7374 14.37106515886892
COSMOS 2251 DEB         
1 34819U 93036ABJ 26072.99421646  .00006626  00000+0  12247-2 0  9991
2 34819  74.0197 327.0053 0013357  38.5295 336.4650 14.65539544895652
COSMOS 2251 DEB         
1 34823U 93036ABN 26071.93396491  .00001823  00000+0  36460-3 0  9996
2 34823  74.0401 291.4722 0153369 352.6062   7.2837 14.55417464896939
COSMOS 2251 DEB         
1 34845U 93036ABP 26073.41342341  .00000901  00000+0  25928-3 0  9993
2 34845  74.0267 337.2051 0020847 119.6360 240.6878 14.46073105887919
COSMOS 2251 DEB         
1 34846U 93036ABQ 26073.32614863  .00002276  00000+0  62008-3 0  9992
2 34846  74.0283  90.4151 0023672 143.6215 216.6559 14.47828679887297
COSMOS 2251 DEB         
1 34852U 93036ABW 26073.42451057  .00000311  00000+0  11337-3 0  9991
2 34852  74.0308  94.3449 0016489 184.6194 175.4810 14.37083318888514
COSMOS 2251 DEB         
1 34854U 93036ABY 26073.45934473  .00005067  00000+0  68901-3 0  9996
2 34854  74.0311 338.6382 0062764  67.0498 293.7283 14.77670287732368
COSMOS 2251 DEB         
1 34856U 93036ACA 26072.94507790  .00032604  00000+0  18910-2 0  9990
2 34856  73.9924 256.4694 0029645   6.9183 142.9660 15.11645275904874
